KUIPER-00203            
1 67773U 26030K   26085.50002314  .00008080  00000+0  93091-3 0  9997
2 67773  51.9008 143.2915 0012409 111.0332 168.5459 14.86401278  5494
KUIPER-00205            
1 67774U 26030L   26085.46531293  .00025407  00000+0  69826-3 0  9997
2 67774  51.8823 138.0199 0004385  69.5253 290.6204 15.37044944  7675
KUIPER-00208            
1 67775U 26030M   26085.50002314  .00030099  00000+0  13140-2 0  9990
2 67775  51.8870 139.2380 0017243 109.6720 103.6008 15.21757123  1307
KUIPER-00209            
1 67776U 26030N   26085.47880652 -.00171736  00000+0 -61969-2 0  9994
2 67776  51.8865 139.5729 0026912  88.2479 272.1586 15.28297812  7656
KUIPER-00213            
1 67777U 26030P   26085.43256773 -.00101123  00000+0 -32836-2 0  9996
2 67777  51.8798 139.2681 0015662 121.9674 238.2835 15.31603598  7654
KUIPER-00214            
1 67778U 26030Q   26085.51896602  .00023406  00000+0  63690-3 0  9995
2 67778  51.8849 137.6465 0001717  27.3230 332.7847 15.37408451  7680
KUIPER-00215            
1 67779U 26030R   26085.51655474  .00029813  00000+0  86992-3 0  9994
2 67779  51.8846 138.3630 0010391 111.3559 248.8536 15.35044892  7670
KUIPER-00218            
1 67780U 26030S   26085.49698732  .00030486  00000+0  86946-3 0  9994
2 67780  51.8833 138.2332 0007466 100.7977 259.3850 15.35774940  7671
KUIPER-00220            
1 67781U 26030T   26085.44464063  .00022128  00000+0  64708-3 0  9994
2 67781  51.8817 138.6164 0008836 104.9078 255.2886 15.35160793  7669
KUIPER-00222            
1 67782U 26030U   26085.50002314  .00028036  00000+0  92145-3 0  9999
2 67782  51.8798 139.0234 0017020 116.4123 217.8505 15.31202892  4106
KUIPER-00223            
1 67783U 26030V   26085.52496918  .00028662  00000+0  84675-3 0  9993
2 67783  51.8846 138.4085 0012770 111.0533 249.1820 15.34649394  7679
KUIPER-00225            
1 67784U 26030W   26085.41293846  .00014439  00000+0  40886-3 0  9990
2 67784  51.8810 138.4151 0005265  85.5377 274.6210 15.36511680  7660
KUIPER-00226            
1 67785U 26030X   26085.47530914  .00005854  00000+0  21125-3 0  9993
2 67785  51.8829 139.5433 0018475 122.8416 237.4350 15.29809664  7657
KUIPER-00259            
1 67786U 26030Y   26085.43646831  .00024454  00000+0  70747-3 0  9997
2 67786  51.8810 138.5631 0008688  97.1090 263.0884 15.35439455  7666
KUIPER-00260            
1 67787U 26030Z   26085.52719148  .00022470  00000+0  61736-3 0  9994
2 67787  51.8800 137.6796 0001860  76.0936 284.0257 15.37133819  7594
KUIPER-00262            
1 67788U 26030AA  26085.50002314  .00036215  00000+0  98093-3 0  9991
2 67788  51.8811 137.7481 0001736  56.5591 188.2512 15.37317592  5691
KUIPER-00266            
1 67789U 26030AB  26085.41307270  .00020465  00000+0  70130-3 0  9993
2 67789  51.8826 139.8694 0024098 129.1193 231.1938 15.29903064  7641
