[{"OBJECT_NAME":"KUIPER-00203","OBJECT_ID":"2026-030K","EPOCH":"2026-03-26T12:00:01.999296","MEAN_MOTION":14.86401278,"ECCENTRICITY":0.0012409,"INCLINATION":51.9008,"RA_OF_ASC_NODE":143.2915,"ARG_OF_PERICENTER":111.0332,"MEAN_ANOMALY":168.5459,"EPHEMERIS_TYPE":0,"CLASSIFICATION_TYPE":"U","NORAD_CAT_ID":67773,"ELEMENT_SET_NO":999,"REV_AT_EPOCH":549,"BSTAR":0.00093091,"MEAN_MOTION_DOT":8.08e-5,"MEAN_MOTION_DDOT":0},{"OBJECT_NAME":"KUIPER-00205","OBJECT_ID":"2026-030L","EPOCH":"2026-03-26T11:10:03.037152","MEAN_MOTION":15.37044944,"ECCENTRICITY":0.0004385,"INCLINATION":51.8823,"RA_OF_ASC_NODE":138.0199,"ARG_OF_PERICENTER":69.5253,"MEAN_ANOMALY":290.6204,"EPHEMERIS_TYPE":0,"CLASSIFICATION_TYPE":"U","NORAD_CAT_ID":67774,"ELEMENT_SET_NO":999,"REV_AT_EPOCH":767,"BSTAR":0.00069826,"MEAN_MOTION_DOT":0.00025407,"MEAN_MOTION_DDOT":0},{"OBJECT_NAME":"KUIPER-00208","OBJECT_ID":"2026-030M","EPOCH":"2026-03-26T12:00:01.999296","MEAN_MOTION":15.21757123,"ECCENTRICITY":0.0017243,"INCLINATION":51.887,"RA_OF_ASC_NODE":139.238,"ARG_OF_PERICENTER":109.672,"MEAN_ANOMALY":103.6008,"EPHEMERIS_TYPE":0,"CLASSIFICATION_TYPE":"U","NORAD_CAT_ID":67775,"ELEMENT_SET_NO":999,"REV_AT_EPOCH":130,"BSTAR":0.001314,"MEAN_MOTION_DOT":0.00030099,"MEAN_MOTION_DDOT":0},{"OBJECT_NAME":"KUIPER-00209","OBJECT_ID":"2026-030N","EPOCH":"2026-03-26T11:29:28.883328","MEAN_MOTION":15.28297812,"ECCENTRICITY":0.0026912,"INCLINATION":51.8865,"RA_OF_ASC_NODE":139.5729,"ARG_OF_PERICENTER":88.2479,"MEAN_ANOMALY":272.1586,"EPHEMERIS_TYPE":0,"CLASSIFICATION_TYPE":"U","NORAD_CAT_ID":67776,"ELEMENT_SET_NO":999,"REV_AT_EPOCH":765,"BSTAR":-0.0061969,"MEAN_MOTION_DOT":-0.00171736,"MEAN_MOTION_DDOT":0},{"OBJECT_NAME":"KUIPER-00213","OBJECT_ID":"2026-030P","EPOCH":"2026-03-26T10:22:53.851872","MEAN_MOTION":15.31603598,"ECCENTRICITY":0.0015662,"INCLINATION":51.8798,"RA_OF_ASC_NODE":139.2681,"ARG_OF_PERICENTER":121.9674,"MEAN_ANOMALY":238.2835,"EPHEMERIS_TYPE":0,"CLASSIFICATION_TYPE":"U","NORAD_CAT_ID":67777,"ELEMENT_SET_NO":999,"REV_AT_EPOCH":765,"BSTAR":-0.0032836,"MEAN_MOTION_DOT":-0.00101123,"MEAN_MOTION_DDOT":0},{"OBJECT_NAME":"KUIPER-00214","OBJECT_ID":"2026-030Q","EPOCH":"2026-03-26T12:27:18.664128","MEAN_MOTION":15.37408451,"ECCENTRICITY":0.0001717,"INCLINATION":51.8849,"RA_OF_ASC_NODE":137.6465,"ARG_OF_PERICENTER":27.323,"MEAN_ANOMALY":332.7847,"EPHEMERIS_TYPE":0,"CLASSIFICATION_TYPE":"U","NORAD_CAT_ID":67778,"ELEMENT_SET_NO":999,"REV_AT_EPOCH":768,"BSTAR":0.0006369,"MEAN_MOTION_DOT":0.00023406,"MEAN_MOTION_DDOT":0},{"OBJECT_NAME":"KUIPER-00215","OBJECT_ID":"2026-030R","EPOCH":"2026-03-26T12:23:50.329536","MEAN_MOTION":15.35044892,"ECCENTRICITY":0.0010391,"INCLINATION":51.8846,"RA_OF_ASC_NODE":138.363,"ARG_OF_PERICENTER":111.3559,"MEAN_ANOMALY":248.8536,"EPHEMERIS_TYPE":0,"CLASSIFICATION_TYPE":"U","NORAD_CAT_ID":67779,"ELEMENT_SET_NO":999,"REV_AT_EPOCH":767,"BSTAR":0.00086992,"MEAN_MOTION_DOT":0.00029813,"MEAN_MOTION_DDOT":0},{"OBJECT_NAME":"KUIPER-00218","OBJECT_ID":"2026-030S","EPOCH":"2026-03-26T11:55:39.704448","MEAN_MOTION":15.3577494,"ECCENTRICITY":0.0007466,"INCLINATION":51.8833,"RA_OF_ASC_NODE":138.2332,"ARG_OF_PERICENTER":100.7977,"MEAN_ANOMALY":259.385,"EPHEMERIS_TYPE":0,"CLASSIFICATION_TYPE":"U","NORAD_CAT_ID":67780,"ELEMENT_SET_NO":999,"REV_AT_EPOCH":767,"BSTAR":0.00086946,"MEAN_MOTION_DOT":0.00030486,"MEAN_MOTION_DDOT":0},{"OBJECT_NAME":"KUIPER-00220","OBJECT_ID":"2026-030T","EPOCH":"2026-03-26T10:40:16.950432","MEAN_MOTION":15.35160793,"ECCENTRICITY":0.0008836,"INCLINATION":51.8817,"RA_OF_ASC_NODE":138.6164,"ARG_OF_PERICENTER":104.9078,"MEAN_ANOMALY":255.2886,"EPHEMERIS_TYPE":0,"CLASSIFICATION_TYPE":"U","NORAD_CAT_ID":67781,"ELEMENT_SET_NO":999,"REV_AT_EPOCH":766,"BSTAR":0.00064708,"MEAN_MOTION_DOT":0.00022128,"MEAN_MOTION_DDOT":0},{"OBJECT_NAME":"KUIPER-00222","OBJECT_ID":"2026-030U","EPOCH":"2026-03-26T12:00:01.999296","MEAN_MOTION":15.31202892,"ECCENTRICITY":0.001702,"INCLINATION":51.8798,"RA_OF_ASC_NODE":139.0234,"ARG_OF_PERICENTER":116.4123,"MEAN_ANOMALY":217.8505,"EPHEMERIS_TYPE":0,"CLASSIFICATION_TYPE":"U","NORAD_CAT_ID":67782,"ELEMENT_SET_NO":999,"REV_AT_EPOCH":410,"BSTAR":0.00092145,"MEAN_MOTION_DOT":0.00028036,"MEAN_MOTION_DDOT":0},{"OBJECT_NAME":"KUIPER-00223","OBJECT_ID":"2026-030V","EPOCH":"2026-03-26T12:35:57.337152","MEAN_MOTION":15.34649394,"ECCENTRICITY":0.001277,"INCLINATION":51.8846,"RA_OF_ASC_NODE":138.4085,"ARG_OF_PERICENTER":111.0533,"MEAN_ANOMALY":249.182,"EPHEMERIS_TYPE":0,"CLASSIFICATION_TYPE":"U","NORAD_CAT_ID":67783,"ELEMENT_SET_NO":999,"REV_AT_EPOCH":767,"BSTAR":0.00084675,"MEAN_MOTION_DOT":0.00028662,"MEAN_MOTION_DDOT":0},{"OBJECT_NAME":"KUIPER-00225","OBJECT_ID":"2026-030W","EPOCH":"2026-03-26T09:54:37.882944","MEAN_MOTION":15.3651168,"ECCENTRICITY":0.0005265,"INCLINATION":51.881,"RA_OF_ASC_NODE":138.4151,"ARG_OF_PERICENTER":85.5377,"MEAN_ANOMALY":274.621,"EPHEMERIS_TYPE":0,"CLASSIFICATION_TYPE":"U","NORAD_CAT_ID":67784,"ELEMENT_SET_NO":999,"REV_AT_EPOCH":766,"BSTAR":0.00040886,"MEAN_MOTION_DOT":0.00014439,"MEAN_MOTION_DDOT":0},{"OBJECT_NAME":"KUIPER-00226","OBJECT_ID":"2026-030X","EPOCH":"2026-03-26T11:24:26.709696","MEAN_MOTION":15.29809664,"ECCENTRICITY":0.0018475,"INCLINATION":51.8829,"RA_OF_ASC_NODE":139.5433,"ARG_OF_PERICENTER":122.8416,"MEAN_ANOMALY":237.435,"EPHEMERIS_TYPE":0,"CLASSIFICATION_TYPE":"U","NORAD_CAT_ID":67785,"ELEMENT_SET_NO":999,"REV_AT_EPOCH":765,"BSTAR":0.00021125,"MEAN_MOTION_DOT":5.854e-5,"MEAN_MOTION_DDOT":0},{"OBJECT_NAME":"KUIPER-00259","OBJECT_ID":"2026-030Y","EPOCH":"2026-03-26T10:28:30.861984","MEAN_MOTION":15.35439455,"ECCENTRICITY":0.0008688,"INCLINATION":51.881,"RA_OF_ASC_NODE":138.5631,"ARG_OF_PERICENTER":97.109,"MEAN_ANOMALY":263.0884,"EPHEMERIS_TYPE":0,"CLASSIFICATION_TYPE":"U","NORAD_CAT_ID":67786,"ELEMENT_SET_NO":999,"REV_AT_EPOCH":766,"BSTAR":0.00070747,"MEAN_MOTION_DOT":0.00024454,"MEAN_MOTION_DDOT":0},{"OBJECT_NAME":"KUIPER-00260","OBJECT_ID":"2026-030Z","EPOCH":"2026-03-26T12:39:09.343872","MEAN_MOTION":15.37133819,"ECCENTRICITY":0.000186,"INCLINATION":51.88,"RA_OF_ASC_NODE":137.6796,"ARG_OF_PERICENTER":76.0936,"MEAN_ANOMALY":284.0257,"EPHEMERIS_TYPE":0,"CLASSIFICATION_TYPE":"U","NORAD_CAT_ID":67787,"ELEMENT_SET_NO":999,"REV_AT_EPOCH":759,"BSTAR":0.00061736,"MEAN_MOTION_DOT":0.0002247,"MEAN_MOTION_DDOT":0},{"OBJECT_NAME":"KUIPER-00262","OBJECT_ID":"2026-030AA","EPOCH":"2026-03-26T12:00:01.999296","MEAN_MOTION":15.37317592,"ECCENTRICITY":0.0001736,"INCLINATION":51.8811,"RA_OF_ASC_NODE":137.7481,"ARG_OF_PERICENTER":56.5591,"MEAN_ANOMALY":188.2512,"EPHEMERIS_TYPE":0,"CLASSIFICATION_TYPE":"U","NORAD_CAT_ID":67788,"ELEMENT_SET_NO":999,"REV_AT_EPOCH":569,"BSTAR":0.00098093,"MEAN_MOTION_DOT":0.00036215,"MEAN_MOTION_DDOT":0},{"OBJECT_NAME":"KUIPER-00266","OBJECT_ID":"2026-030AB","EPOCH":"2026-03-26T09:54:49.481280","MEAN_MOTION":15.29903064,"ECCENTRICITY":0.0024098,"INCLINATION":51.8826,"RA_OF_ASC_NODE":139.8694,"ARG_OF_PERICENTER":129.1193,"MEAN_ANOMALY":231.1938,"EPHEMERIS_TYPE":0,"CLASSIFICATION_TYPE":"U","NORAD_CAT_ID":67789,"ELEMENT_SET_NO":999,"REV_AT_EPOCH":764,"BSTAR":0.0007013,"MEAN_MOTION_DOT":0.00020465,"MEAN_MOTION_DDOT":0}]
